{"type": "FeatureCollection", "features": [ {"type": "Feature", "properties": {"norad_id": 40534, "name": "GPS BIIF-9  (PRN 26)", "group": "gps-ops", "lat": -5.28474473427851, "lon": 36.073372296486795, "alt_km": 20423.743515377384, "timestamp": "2025-12-07T20:38:14.322936+00:00", "meta": {"OBJECT_NAME": "GPS BIIF-9  (PRN 26)", "OBJECT_ID": "2015-013A", "EPOCH": "2025-12-06T14:33:06.415200", "MEAN_MOTION": 2.0056283, "ECCENTRICITY": 0.010678, "INCLINATION": 53.1987, "RA_OF_ASC_NODE": 212.1443, "ARG_OF_PERICENTER": 38.3324, "MEAN_ANOMALY": 322.5165, "EPHEMERIS_TYPE": 0, "CLASSIFICATION_TYPE": "U", "NORAD_CAT_ID": 40534, "ELEMENT_SET_NO": 999, "REV_AT_EPOCH": 7796, "BSTAR": 0, "MEAN_MOTION_DOT": 4.8e-07, "MEAN_MOTION_DDOT": 0}, "tle": {"line1": "1 40534U 15013A   25340.60632425  .00000048  00000+0  00000+0 0  9998", "line2": "2 40534  53.1987 212.1443 0106780  38.3324 322.5165  2.00562830 77962"}}, "geometry": {"type": "Point", "coordinates": [36.073372296486795, -5.28474473427851]}}, {"type": "Feature", "properties": {"norad_id": 40730, "name": "GPS BIIF-10 (PRN 08)", "group": "gps-ops", "lat": 49.65907640667112, "lon": -26.764383753428657, "alt_km": 19961.549634062245, "timestamp": "2025-12-07T20:38:14.322948+00:00", "meta": {"OBJECT_NAME": "GPS BIIF-10 (PRN 08)", "OBJECT_ID": "2015-033A", "EPOCH": "2025-12-07T06:23:22.646112", "MEAN_MOTION": 2.00565795, "ECCENTRICITY": 0.01106155, "INCLINATION": 54.1355, "RA_OF_ASC_NODE": 274.9981, "ARG_OF_PERICENTER": 26.6749, "MEAN_ANOMALY": 333.904, "EPHEMERIS_TYPE": 0, "CLASSIFICATION_TYPE": "U", "NORAD_CAT_ID": 40730, "ELEMENT_SET_NO": 999, "REV_AT_EPOCH": 7614, "BSTAR": 0, "MEAN_MOTION_DOT": -3.3e-07, "MEAN_MOTION_DDOT": 0}, "tle": {"line1": "1 40730U 15033A   25341.26623433 -.00000033  00000+0  00000+0 0  9995", "line2": "2 40730  54.1355 274.9981 0110615  26.6749 333.9040  2.00565795 76146"}}, "geometry": {"type": "Point", "coordinates": [-26.764383753428657, 49.65907640667112]}}, {"type": "Feature", "properties": {"norad_id": 41019, "name": "GPS BIIF-11 (PRN 10)", "group": "gps-ops", "lat": 20.99393382186328, "lon": 52.733421510776, "alt_km": 20447.067105901657, "timestamp": "2025-12-07T20:38:14.322958+00:00", "meta": {"OBJECT_NAME": "GPS BIIF-11 (PRN 10)", "OBJECT_ID": "2015-062A", "EPOCH": "2025-12-06T19:50:55.474944", "MEAN_MOTION": 2.00566966, "ECCENTRICITY": 0.01106613, "INCLINATION": 56.8279, "RA_OF_ASC_NODE": 38.2311, "ARG_OF_PERICENTER": 229.7726, "MEAN_ANOMALY": 129.3101, "EPHEMERIS_TYPE": 0, "CLASSIFICATION_TYPE": "U", "NORAD_CAT_ID": 41019, "ELEMENT_SET_NO": 999, "REV_AT_EPOCH": 7397, "BSTAR": 0, "MEAN_MOTION_DOT": -7e-07, "MEAN_MOTION_DDOT": 0}, "tle": {"line1": "1 41019U 15062A   25340.82703096 -.00000070  00000+0  00000+0 0  9994", "line2": "2 41019  56.8279  38.2311 0110661 229.7726 129.3101  2.00566966 73975"}}, "geometry": {"type": "Point", "coordinates": [52.733421510776, 20.99393382186328]}}, {"type": "Feature", "properties": {"norad_id": 41328, "name": "GPS BIIF-12 (PRN 32)", "group": "gps-ops", "lat": -27.106294436308612, "lon": 76.38016508847575, "alt_km": 20154.32646341633, "timestamp": "2025-12-07T20:38:14.322969+00:00", "meta": {"OBJECT_NAME": "GPS BIIF-12 (PRN 32)", "OBJECT_ID": "2016-007A", "EPOCH": "2025-12-05T09:55:37.612128", "MEAN_MOTION": 2.00560998, "ECCENTRICITY": 0.00917952, "INCLINATION": 55.402, "RA_OF_ASC_NODE": 97.1478, "ARG_OF_PERICENTER": 243.3887, "MEAN_ANOMALY": 115.6411, "EPHEMERIS_TYPE": 0, "CLASSIFICATION_TYPE": "U", "NORAD_CAT_ID": 41328, "ELEMENT_SET_NO": 999, "REV_AT_EPOCH": 7195, "BSTAR": 0, "MEAN_MOTION_DOT": -1.1e-07, "MEAN_MOTION_DDOT": 0}, "tle": {"line1": "1 41328U 16007A   25339.41362977 -.00000011  00000+0  00000+0 0  9994", "line2": "2 41328  55.4020  97.1478 0091795 243.3887 115.6411  2.00560998 71958"}}, "geometry": {"type": "Point", "coordinates": [76.38016508847575, -27.106294436308612]}}, {"type": "Feature", "properties": {"norad_id": 43873, "name": "GPS BIII-1  (PRN 04)", "group": "gps-ops", "lat": -32.27907255247196, "lon": -54.617406145816034, "alt_km": 20098.035608112317, "timestamp": "2025-12-07T20:38:14.322981+00:00", "meta": {"OBJECT_NAME": "GPS BIII-1  (PRN 04)", "OBJECT_ID": "2018-109A", "EPOCH": "2025-12-06T13:44:13.581888", "MEAN_MOTION": 2.00553236, "ECCENTRICITY": 0.00371783, "INCLINATION": 55.5639, "RA_OF_ASC_NODE": 99.7903, "ARG_OF_PERICENTER": 194.7301, "MEAN_ANOMALY": 175.7639, "EPHEMERIS_TYPE": 0, "CLASSIFICATION_TYPE": "U", "NORAD_CAT_ID": 43873, "ELEMENT_SET_NO": 999, "REV_AT_EPOCH": 5121, "BSTAR": 0, "MEAN_MOTION_DOT": -4e-08, "MEAN_MOTION_DDOT": 0}, "tle": {"line1": "1 43873U 18109A   25340.57237942 -.00000004  00000+0  00000+0 0  9990", "line2": "2 43873  55.5639  99.7903 0037178 194.7301 175.7639  2.00553236 51211"}}, "geometry": {"type": "Point", "coordinates": [-54.617406145816034, -32.27907255247196]}}, {"type": "Feature", "properties": {"norad_id": 44506, "name": "GPS BIII-2  (PRN 18)", "group": "gps-ops", "lat": 47.825630639329646, "lon": 109.9064251554468, "alt_km": 20155.018692564514, "timestamp": "2025-12-07T20:38:14.322994+00:00", "meta": {"OBJECT_NAME": "GPS BIII-2  (PRN 18)", "OBJECT_ID": "2019-056A", "EPOCH": "2025-12-06T22:22:18.882336", "MEAN_MOTION": 2.00565727, "ECCENTRICITY": 0.00577801, "INCLINATION": 55.7235, "RA_OF_ASC_NODE": 338.7828, "ARG_OF_PERICENTER": 198.4731, "MEAN_ANOMALY": 328.5143, "EPHEMERIS_TYPE": 0, "CLASSIFICATION_TYPE": "U", "NORAD_CAT_ID": 44506, "ELEMENT_SET_NO": 999, "REV_AT_EPOCH": 4621, "BSTAR": 0, "MEAN_MOTION_DOT": -8.2e-07, "MEAN_MOTION_DDOT": 0}, "tle": {"line1": "1 44506U 19056A   25340.93216299 -.00000082  00000+0  00000+0 0  9994", "line2": "2 44506  55.7235 338.7828 0057780 198.4731 328.5143  2.00565727 46210"}}, "geometry": {"type": "Point", "coordinates": [109.9064251554468, 47.825630639329646]}}, {"type": "Feature", "properties": {"norad_id": 45854, "name": "GPS BIII-3  (PRN 23)", "group": "gps-ops", "lat": 46.59758531310138, "lon": 80.70704272869006, "alt_km": 20304.15941699218, "timestamp": "2025-12-07T20:38:14.323018+00:00", "meta": {"OBJECT_NAME": "GPS BIII-3  (PRN 23)", "OBJECT_ID": "2020-041A", "EPOCH": "2025-12-06T06:48:20.878272", "MEAN_MOTION": 2.00561679, "ECCENTRICITY": 0.00603304, "INCLINATION": 56.5425, "RA_OF_ASC_NODE": 36.4371, "ARG_OF_PERICENTER": 203.1563, "MEAN_ANOMALY": 159.699, "EPHEMERIS_TYPE": 0, "CLASSIFICATION_TYPE": "U", "NORAD_CAT_ID": 45854, "ELEMENT_SET_NO": 999, "REV_AT_EPOCH": 4017, "BSTAR": 0, "MEAN_MOTION_DOT": -7e-07, "MEAN_MOTION_DDOT": 0}, "tle": {"line1": "1 45854U 20041A   25340.28357498 -.00000070  00000+0  00000+0 0  9999", "line2": "2 45854  56.5425  36.4371 0060330 203.1563 159.6990  2.00561679 40178"}}, "geometry": {"type": "Point", "coordinates": [80.70704272869006, 46.59758531310138]}}, {"type": "Feature", "properties": {"norad_id": 46826, "name": "GPS BIII-4  (PRN 14)", "group": "gps-ops", "lat": 25.154722009187783, "lon": -121.51497562010367, "alt_km": 20347.904423795735, "timestamp": "2025-12-07T20:38:14.323039+00:00", "meta": {"OBJECT_NAME": "GPS BIII-4  (PRN 14)", "OBJECT_ID": "2020-078A", "EPOCH": "2025-11-12T03:01:29.191584", "MEAN_MOTION": 2.00567032, "ECCENTRICITY": 0.00639112, "INCLINATION": 54.0223, "RA_OF_ASC_NODE": 219.5836, "ARG_OF_PERICENTER": 203.4986, "MEAN_ANOMALY": 326.7753, "EPHEMERIS_TYPE": 0, "CLASSIFICATION_TYPE": "U", "NORAD_CAT_ID": 46826, "ELEMENT_SET_NO": 999, "REV_AT_EPOCH": 3715, "BSTAR": 0, "MEAN_MOTION_DOT": -3.4e-07, "MEAN_MOTION_DDOT": 0}, "tle": {"line1": "1 46826U 20078A   25316.12603231 -.00000034  00000+0  00000+0 0  9994", "line2": "2 46826  54.0223 219.5836 0063911 203.4986 326.7753  2.00567032 37154"}}, "geometry": {"type": "Point", "coordinates": [-121.51497562010367, 25.154722009187783]}}, {"type": "Feature", "properties": {"norad_id": 48859, "name": "GPS BIII-5  (PRN 11)", "group": "gps-ops", "lat": -29.95630094531636, "lon": -176.27974408999378, "alt_km": 20123.848292464354, "timestamp": "2025-12-07T20:38:14.323058+00:00", "meta": {"OBJECT_NAME": "GPS BIII-5  (PRN 11)", "OBJECT_ID": "2021-054A", "EPOCH": "2025-11-30T17:12:22.002912", "MEAN_MOTION": 2.00553932, "ECCENTRICITY": 0.0024653, "INCLINATION": 55.2606, "RA_OF_ASC_NODE": 340.4377, "ARG_OF_PERICENTER": 232.9477, "MEAN_ANOMALY": 227.2059, "EPHEMERIS_TYPE": 0, "CLASSIFICATION_TYPE": "U", "NORAD_CAT_ID": 48859, "ELEMENT_SET_NO": 999, "REV_AT_EPOCH": 3277, "BSTAR": 0, "MEAN_MOTION_DOT": -5.5e-07, "MEAN_MOTION_DDOT": 0}, "tle": {"line1": "1 48859U 21054A   25334.71692133 -.00000055  00000+0  00000+0 0  9994", "line2": "2 48859  55.2606 340.4377 0024653 232.9477 227.2059  2.00553932 32777"}}, "geometry": {"type": "Point", "coordinates": [-176.27974408999378, -29.95630094531636]}}, {"type": "Feature", "properties": {"norad_id": 55268, "name": "GPS BIII-6  (PRN 28)", "group": "gps-ops", "lat": -53.79886777282569, "lon": 48.581990744339286, "alt_km": 20189.875656575477, "timestamp": "2025-12-07T20:38:14.323070+00:00", "meta": {"OBJECT_NAME": "GPS BIII-6  (PRN 28)", "OBJECT_ID": "2023-009A", "EPOCH": "2025-12-07T05:54:14.393088", "MEAN_MOTION": 2.00556057, "ECCENTRICITY": 0.00036245, "INCLINATION": 55.1044, "RA_OF_ASC_NODE": 156.061, "ARG_OF_PERICENTER": 357.0717, "MEAN_ANOMALY": 179.5009, "EPHEMERIS_TYPE": 0, "CLASSIFICATION_TYPE": "U", "NORAD_CAT_ID": 55268, "ELEMENT_SET_NO": 999, "REV_AT_EPOCH": 2139, "BSTAR": 0, "MEAN_MOTION_DOT": 5.8e-07, "MEAN_MOTION_DDOT": 0}, "tle": {"line1": "1 55268U 23009A   25341.24599992  .00000058  00000+0  00000+0 0  9995", "line2": "2 55268  55.1044 156.0610 0003624 357.0717 179.5009  2.00556057 21397"}}, "geometry": {"type": "Point", "coordinates": [48.581990744339286, -53.79886777282569]}}]}